{
  "type": "FeatureCollection",
  "features": [
    {
      "type": "Feature",
      "properties": {
        "norad_id": 30654,
        "name": "FENGYUN 1C DEB",
        "group": "fengyun-1c-debris",
        "lat": -72.304661143696,
        "lon": 57.962223301588104,
        "alt_km": 865.296446667734,
        "timestamp": "2025-12-11T10:53:16.164874+00:00",
        "meta_object_name": "FENGYUN 1C DEB",
        "meta_object_id": "1999-025APL",
        "meta_epoch": "2025-12-10T04:53:03.060096",
        "meta_mean_motion": 14.17081119,
        "meta_eccentricity": 0.003507,
        "meta_inclination": 99.2407,
        "meta_ra_of_asc_node": 267.3446,
        "meta_arg_of_pericenter": 103.7995,
        "meta_mean_anomaly": 256.7085,
        "meta_ephemeris_type": 0,
        "meta_classification_type": "U",
        "meta_norad_cat_id": 30654,
        "meta_element_set_no": 999,
        "meta_rev_at_epoch": 96644,
        "meta_bstar": 0.0016599,
        "meta_mean_motion_dot": 3.315e-05,
        "meta_mean_motion_ddot": 0,
        "tle_line1": "1 30654U 99025APL 25344.20350764  .00003315  00000+0  16599-2 0  9991",
        "tle_line2": "2 30654  99.2407 267.3446 0035070 103.7995 256.7085 14.17081119966447"
      },
      "geometry": {
        "type": "Point",
        "coordinates": [
          57.962223301588104,
          -72.304661143696
        ]
      }
    },
    {
      "type": "Feature",
      "properties": {
        "norad_id": 30656,
        "name": "FENGYUN 1C DEB",
        "group": "fengyun-1c-debris",
        "lat": -80.33629602978905,
        "lon": -131.66802825372102,
        "alt_km": 769.9152755391187,
        "timestamp": "2025-12-11T10:53:16.164885+00:00",
        "meta_object_name": "FENGYUN 1C DEB",
        "meta_object_id": "1999-025APN",
        "meta_epoch": "2025-12-10T18:40:26.050656",
        "meta_mean_motion": 14.45266625,
        "meta_eccentricity": 0.00302685,
        "meta_inclination": 99.0187,
        "meta_ra_of_asc_node": 158.754,
        "meta_arg_of_pericenter": 92.3696,
        "meta_mean_anomaly": 268.0959,
        "meta_ephemeris_type": 0,
        "meta_classification_type": "U",
        "meta_norad_cat_id": 30656,
        "meta_element_set_no": 999,
        "meta_rev_at_epoch": 97057,
        "meta_bstar": 0.0043625291,
        "meta_mean_motion_dot": 0.00015377,
        "meta_mean_motion_ddot": 0,
        "tle_line1": "1 30656U 99025APN 25344.77807929  .00015377  00000+0  43625-2 0  9996",
        "tle_line2": "2 30656  99.0187 158.7540 0030268  92.3696 268.0959 14.45266625970578"
      },
      "geometry": {
        "type": "Point",
        "coordinates": [
          -131.66802825372102,
          -80.33629602978905
        ]
      }
    },
    {
      "type": "Feature",
      "properties": {
        "norad_id": 30657,
        "name": "FENGYUN 1C DEB",
        "group": "fengyun-1c-debris",
        "lat": 60.09627344615367,
        "lon": 67.75524898338779,
        "alt_km": 753.8467590885193,
        "timestamp": "2025-12-11T10:53:16.164896+00:00",
        "meta_object_name": "FENGYUN 1C DEB",
        "meta_object_id": "1999-025APP",
        "meta_epoch": "2025-12-11T05:43:55.407072",
        "meta_mean_motion": 14.38564737,
        "meta_eccentricity": 0.0015824,
        "meta_inclination": 98.8351,
        "meta_ra_of_asc_node": 83.225,
        "meta_arg_of_pericenter": 350.0679,
        "meta_mean_anomaly": 39.2267,
        "meta_ephemeris_type": 0,
        "meta_classification_type": "U",
        "meta_norad_cat_id": 30657,
        "meta_element_set_no": 999,
        "meta_rev_at_epoch": 97211,
        "meta_bstar": 0.003359,
        "meta_mean_motion_dot": 0.00010259,
        "meta_mean_motion_ddot": 0,
        "tle_line1": "1 30657U 99025APP 25345.23883573  .00010259  00000+0  33590-2 0  9992",
        "tle_line2": "2 30657  98.8351  83.2250 0015824 350.0679  39.2267 14.38564737972114"
      },
      "geometry": {
        "type": "Point",
        "coordinates": [
          67.75524898338779,
          60.09627344615367
        ]
      }
    },
    {
      "type": "Feature",
      "properties": {
        "norad_id": 30658,
        "name": "FENGYUN 1C DEB",
        "group": "fengyun-1c-debris",
        "lat": 2.945588045336995,
        "lon": -161.5474858083611,
        "alt_km": 860.5588772936644,
        "timestamp": "2025-12-11T10:53:16.164907+00:00",
        "meta_object_name": "FENGYUN 1C DEB",
        "meta_object_id": "1999-025APQ",
        "meta_epoch": "2025-12-10T13:14:54.674016",
        "meta_mean_motion": 13.87185477,
        "meta_eccentricity": 0.0183797,
        "meta_inclination": 98.4379,
        "meta_ra_of_asc_node": 17.2002,
        "meta_arg_of_pericenter": 233.513,
        "meta_mean_anomaly": 124.8975,
        "meta_ephemeris_type": 0,
        "meta_classification_type": "U",
        "meta_norad_cat_id": 30658,
        "meta_element_set_no": 999,
        "meta_rev_at_epoch": 94654,
        "meta_bstar": 0.0024901,
        "meta_mean_motion_dot": 3.303e-05,
        "meta_mean_motion_ddot": 0,
        "tle_line1": "1 30658U 99025APQ 25344.55202169  .00003303  00000+0  24901-2 0  9991",
        "tle_line2": "2 30658  98.4379  17.2002 0183797 233.5130 124.8975 13.87185477946543"
      },
      "geometry": {
        "type": "Point",
        "coordinates": [
          -161.5474858083611,
          2.945588045336995
        ]
      }
    },
    {
      "type": "Feature",
      "properties": {
        "norad_id": 30660,
        "name": "FENGYUN 1C DEB",
        "group": "fengyun-1c-debris",
        "lat": 10.458969336717137,
        "lon": -96.60795032034312,
        "alt_km": 701.4825620672509,
        "timestamp": "2025-12-11T10:53:16.164917+00:00",
        "meta_object_name": "FENGYUN 1C DEB",
        "meta_object_id": "1999-025APS",
        "meta_epoch": "2025-12-11T05:32:24.416160",
        "meta_mean_motion": 14.87507411,
        "meta_eccentricity": 0.0137252,
        "meta_inclination": 98.1385,
        "meta_ra_of_asc_node": 81.6498,
        "meta_arg_of_pericenter": 339.498,
        "meta_mean_anomaly": 77.6219,
        "meta_ephemeris_type": 0,
        "meta_classification_type": "U",
        "meta_norad_cat_id": 30660,
        "meta_element_set_no": 999,
        "meta_rev_at_epoch": 762,
        "meta_bstar": 0.00093405,
        "meta_mean_motion_dot": 0.00010019,
        "meta_mean_motion_ddot": 0,
        "tle_line1": "1 30660U 99025APS 25345.23083815  .00010019  00000+0  93405-3 0  9993",
        "tle_line2": "2 30660  98.1385  81.6498 0137252 339.4980  77.6219 14.87507411  7628"
      },
      "geometry": {
        "type": "Point",
        "coordinates": [
          -96.60795032034312,
          10.458969336717137
        ]
      }
    },
    {
      "type": "Feature",
      "properties": {
        "norad_id": 30661,
        "name": "FENGYUN 1C DEB",
        "group": "fengyun-1c-debris",
        "lat": 11.921949267639695,
        "lon": -16.941496015670204,
        "alt_km": 871.4136645168901,
        "timestamp": "2025-12-11T10:53:16.164928+00:00",
        "meta_object_name": "FENGYUN 1C DEB",
        "meta_object_id": "1999-025APT",
        "meta_epoch": "2025-12-10T10:27:27.881568",
        "meta_mean_motion": 14.21140019,
        "meta_eccentricity": 0.01447878,
        "meta_inclination": 99.4869,
        "meta_ra_of_asc_node": 159.9425,
        "meta_arg_of_pericenter": 52.0875,
        "meta_mean_anomaly": 309.3288,
        "meta_ephemeris_type": 0,
        "meta_classification_type": "U",
        "meta_norad_cat_id": 30661,
        "meta_element_set_no": 999,
        "meta_rev_at_epoch": 97869,
        "meta_bstar": 0.00017496253,
        "meta_mean_motion_dot": 3.73e-06,
        "meta_mean_motion_ddot": 0,
        "tle_line1": "1 30661U 99025APT 25344.43573937  .00000373  00000+0  17496-3 0  9992",
        "tle_line2": "2 30661  99.4869 159.9425 0144787  52.0875 309.3288 14.21140019978691"
      },
      "geometry": {
        "type": "Point",
        "coordinates": [
          -16.941496015670204,
          11.921949267639695
        ]
      }
    },
    {
      "type": "Feature",
      "properties": {
        "norad_id": 30662,
        "name": "FENGYUN 1C DEB",
        "group": "fengyun-1c-debris",
        "lat": -28.196353599972586,
        "lon": -143.2061924464461,
        "alt_km": 813.6944176684046,
        "timestamp": "2025-12-11T10:53:16.164938+00:00",
        "meta_object_name": "FENGYUN 1C DEB",
        "meta_object_id": "1999-025APU",
        "meta_epoch": "2025-12-09T02:19:43.925952",
        "meta_mean_motion": 14.22321832,
        "meta_eccentricity": 0.00327932,
        "meta_inclination": 99.0534,
        "meta_ra_of_asc_node": 39.2783,
        "meta_arg_of_pericenter": 281.6226,
        "meta_mean_anomaly": 107.1029,
        "meta_ephemeris_type": 0,
        "meta_classification_type": "U",
        "meta_norad_cat_id": 30662,
        "meta_element_set_no": 999,
        "meta_rev_at_epoch": 96587,
        "meta_bstar": 0.0018706914,
        "meta_mean_motion_dot": 4.137e-05,
        "meta_mean_motion_ddot": 0,
        "tle_line1": "1 30662U 99025APU 25343.09703618  .00004137  00000+0  18707-2 0  9992",
        "tle_line2": "2 30662  99.0534  39.2783 0032793 281.6226 107.1029 14.22321832965875"
      },
      "geometry": {
        "type": "Point",
        "coordinates": [
          -143.2061924464461,
          -28.196353599972586
        ]
      }
    }
  ]
}